SatCatId,ObjectName,LaunchYear,OrbitalPeriod,LaunchMass,StatusCode,Inclination,Status,UcsData,OrbitClassEstimated,LaunchSiteCountry,Owner,UseType,Purpose,LaunchVehicleClass,TLE1,TLE2,MeanMotion,Eccentricity,OrbitClass
55334,STARLINK-5652,2023,95.84,290.0,+,43.0,Active,1,LEO,USA,USA,Commercial,Communications,Falcon,1 55334U 23013D   25111.72714064  .00001304  00000+0  11155-3 0  9993,2 55334  43.0031 250.0526 0001558 257.5807 102.4861 15.02540915123275,15.02540915,0.0001558,LEO
55335,STARLINK-5660,2023,95.84,290.0,+,43.0,Active,1,LEO,USA,USA,Commercial,Communications,Falcon,1 55335U 23013E   25111.85455476 -.00000059  00000+0  10720-4 0  9992,2 55335  43.0031 249.3845 0000727 241.0086 119.0683 15.02545348123726,15.02545348,7.27e-05,LEO
55336,STARLINK-5655,2023,95.84,290.0,+,43.0,Active,1,LEO,USA,USA,Commercial,Communications,Falcon,1 55336U 23013F   25112.58605693  .00015804  00000+0  11815-2 0  9999,2 55336  43.0022 232.3125 0001341 269.7141  90.3547 15.02562211123551,15.02562211,0.0001341,LEO
55337,STARLINK-5667,2023,95.84,290.0,+,43.0,Active,1,LEO,USA,USA,Commercial,Communications,Falcon,1 55337U 23013G   25111.70187377  .00000453  00000+0  48581-4 0  9993,2 55337  43.0031 236.9048 0001391 260.9079  99.1605 15.02535109123855,15.02535109,0.0001391,LEO
55338,STARLINK-5658,2023,95.84,290.0,+,43.0,Active,1,LEO,USA,USA,Commercial,Communications,Falcon,1 55338U 23013H   25111.78586338  .00000109  00000+0  23139-4 0  9992,2 55338  43.0042 249.7334 0001568 273.3998  86.6665 15.02542437123288,15.02542437,0.0001568,LEO
55339,STARLINK-5671,2023,95.84,290.0,+,43.01,Active,1,LEO,USA,USA,Commercial,Communications,Falcon,1 55339U 23013J   25111.84678226  .00003138  00000+0  24728-3 0  9997,2 55339  43.0022 249.3291 0000866 289.2252  70.8497 15.02537897123725,15.02537897,8.66e-05,LEO
55340,STARLINK-5675,2023,95.84,290.0,+,43.0,Active,1,LEO,USA,USA,Commercial,Communications,Falcon,1 55340U 23013K   25111.70163469  .00000075  00000+0  20591-4 0  9994,2 55340  43.0033 249.9618 0000505 230.2366 129.8432 15.02535373123271,15.02535373,5.05e-05,LEO
55341,STARLINK-5670,2023,95.84,290.0,+,43.0,Active,1,LEO,USA,USA,Commercial,Communications,Falcon,1 55341U 23013L   25111.78252875  .00001359  00000+0  11565-3 0  9999,2 55341  43.0047 249.7073 0001695 259.3930 100.6722 15.02540313123280,15.02540313,0.0001695,LEO
55342,STARLINK-5657,2023,95.84,290.0,+,43.0,Active,1,LEO,USA,USA,Commercial,Communications,Falcon,1 55342U 23013M   25111.71050786  .00004644  00000+0  35853-3 0  9996,2 55342  43.0023 250.0270 0001418 276.6631  83.4050 15.02550013123271,15.02550013,0.0001418,LEO
55343,STARLINK-5661,2023,95.84,290.0,+,42.99,Active,1,LEO,USA,USA,Commercial,Communications,Falcon,1 55343U 23013N   25112.36973039  .00000924  00000+0  83489-4 0  9990,2 55343  43.0050 246.3706 0001829 258.9878 101.0759 15.02538863123379,15.02538863,0.0001829,LEO
55345,STARLINK-5653,2023,95.84,290.0,+,43.0,Active,1,LEO,USA,USA,Commercial,Communications,Falcon,1 55345U 23013Q   25111.77168689  .00000264  00000+0  34599-4 0  9998,2 55345  43.0016 236.5972 0001290 256.3153 103.7545 15.02538762123436,15.02538762,0.000129,LEO
55346,STARLINK-5631,2023,95.84,290.0,+,43.0,Active,1,LEO,USA,USA,Commercial,Communications,Falcon,1 55346U 23013R   25110.83851658  .00001212  00000+0  10473-3 0  9998,2 55346  43.0022 254.6613 0001059 260.4527  99.6196 15.02541216123142,15.02541216,0.0001059,LEO
55347,STARLINK-5663,2023,95.84,290.0,+,43.0,Active,1,LEO,USA,USA,Commercial,Communications,Falcon,1 55347U 23013S   25111.75700167  .00000544  00000+0  55350-4 0  9990,2 55347  43.0047 249.5119 0001499 277.4014  82.6658 15.02538382123281,15.02538382,0.0001499,LEO
55348,STARLINK-5609,2023,95.84,290.0,+,43.0,Active,1,LEO,USA,USA,Commercial,Communications,Falcon,1 55348U 23013T   25111.76587949  .00001026  00000+0  91034-4 0  9998,2 55348  43.0042 249.5764 0001449 258.9087 101.1592 15.02539998123280,15.02539998,0.0001449,LEO
55349,STARLINK-5666,2023,95.84,290.0,+,43.0,Active,1,LEO,USA,USA,Commercial,Communications,Falcon,1 55349U 23013U   25111.82902902  .00000244  00000+0  33156-4 0  9998,2 55349  43.0028 249.1935 0001479 275.9468  84.1206 15.02538467123727,15.02538467,0.0001479,LEO
55350,STARLINK-5668,2023,95.84,290.0,+,43.0,Active,1,LEO,USA,USA,Commercial,Communications,Falcon,1 55350U 23013V   25111.75922224  .00000803  00000+0  74481-4 0  9998,2 55350  43.0040 249.5315 0001415 267.3586  92.7094 15.02535005123281,15.02535005,0.0001415,LEO
55351,STARLINK-5659,2023,95.84,290.0,+,43.0,Active,1,LEO,USA,USA,Commercial,Communications,Falcon,1 55351U 23013W   25111.74813305 -.00001238  00000+0 -76578-4 0  9991,2 55351  43.0001 249.4462 0000809  17.8108 342.2762 15.02547513123287,15.02547513,8.09e-05,LEO
55352,STARLINK-5547,2023,95.84,290.0,+,43.0,Active,1,LEO,USA,USA,Commercial,Communications,Falcon,1 55352U 23013X   25111.82014593 -.00000312  00000+0 -79780-5 0  9994,2 55352  43.0043 249.1290 0002084 266.2681  93.7923 15.02540371123724,15.02540371,0.0002084,LEO
55353,STARLINK-5608,2023,95.84,290.0,+,43.0,Active,1,LEO,USA,USA,Commercial,Communications,Falcon,1 55353U 23013Y   25111.73369073  .00001307  00000+0  11182-3 0  9994,2 55353  43.0042 249.3347 0001945 249.7577 110.3056 15.02539830123286,15.0253983,0.0001945,LEO
55354,STARLINK-5649,2023,95.84,290.0,+,43.0,Active,1,LEO,USA,USA,Commercial,Communications,Falcon,1 55354U 23013Z   25110.75428805 -.00000132  00000+0  53190-5 0  9998,2 55354  43.0036 254.8930 0002370 290.4892  69.5695 15.02538550123131,15.0253855,0.000237,LEO
55355,STARLINK-5647,2023,95.84,290.0,+,43.0,Active,1,LEO,USA,USA,Commercial,Communications,Falcon,1 55355U 23013AA  25111.74145358 -.00011897  00000+0 -86577-3 0  9992,2 55355  43.0046 249.3796 0001470 272.7189  87.3485 15.02593969123279,15.02593969,0.000147,LEO
55357,STARLINK-5651,2023,95.84,290.0,+,43.0,Active,1,LEO,USA,USA,Commercial,Communications,Falcon,1 55357U 23013AC  25111.74257295  .00000568  00000+0  57097-4 0  9995,2 55357  43.0040 249.4031 0001425 266.8635  93.2045 15.02539910123283,15.0253991,0.0001425,LEO
55358,STARLINK-5622,2023,95.84,290.0,+,43.0,Active,1,LEO,USA,USA,Commercial,Communications,Falcon,1 55358U 23013AD  25111.74479187  .00000594  00000+0  59015-4 0  9993,2 55358  43.0026 249.4201 0001468 263.6284  96.4391 15.02535668123284,15.02535668,0.0001468,LEO
55359,STARLINK-5641,2023,95.84,290.0,+,43.0,Active,1,LEO,USA,USA,Commercial,Communications,Falcon,1 55359U 23013AE  25111.73923481  .00004050  00000+0  31453-3 0  9990,2 55359  42.9931 249.3886 0001428  35.8690 324.2248 15.02554009123285,15.02554009,0.0001428,LEO
55360,STARLINK-5664,2023,95.84,290.0,+,43.0,Active,1,LEO,USA,USA,Commercial,Communications,Falcon,1 55360U 23013AF  25111.85527723 -.00001467  00000+0 -93440-4 0  9990,2 55360  43.0058 261.5226 0002342 275.4653  84.5923 15.02551891123585,15.02551891,0.0002342,LEO
55361,STARLINK-5665,2023,95.84,290.0,+,43.0,Active,1,LEO,USA,USA,Commercial,Communications,Falcon,1 55361U 23013AG  25111.75060327  .00000371  00000+0  42553-4 0  9992,2 55361  43.0036 236.4604 0001175 280.3071  79.7639 15.02544429123865,15.02544429,0.0001175,LEO
55362,STARLINK-5574,2023,95.84,290.0,+,43.01,Active,1,LEO,USA,USA,Commercial,Communications,Falcon,1 55362U 23013AH  25111.76169622  .00000895  00000+0  81309-4 0  9995,2 55362  43.0043 236.5384 0002126 254.3664 105.6944 15.02536803123434,15.02536803,0.0002126,LEO
55364,STARLINK-5627,2023,95.84,290.0,+,43.01,Active,1,LEO,USA,USA,Commercial,Communications,Falcon,1 55364U 23013AK  25111.80348687  .00000632  00000+0  61838-4 0  9996,2 55364  43.0052 249.0022 0001690 280.0967  79.9685 15.02546362123291,15.02546362,0.000169,LEO
55365,STARLINK-5639,2023,95.84,290.0,+,43.0,Active,1,LEO,USA,USA,Commercial,Communications,Falcon,1 55365U 23013AL  25111.76230573 -.00002497  00000+0 -16989-3 0  9995,2 55365  43.0056 262.5385 0002072 246.4587 113.6038 15.02525470123135,15.0252547,0.0002072,LEO
55366,STARLINK-5654,2023,95.84,290.0,+,43.0,Active,1,LEO,USA,USA,Commercial,Communications,Falcon,1 55366U 23013AM  25111.69856125 -.00001660  00000+0 -10787-3 0  9996,2 55366  43.0022 236.9231 0001326 270.0268  90.0422 15.02528556123429,15.02528556,0.0001326,LEO
55367,STARLINK-5635,2023,95.83,290.0,+,43.0,Active,1,LEO,USA,USA,Commercial,Communications,Falcon,1 55367U 23013AN  25111.71519628  .00003134  00000+0  24704-3 0  9994,2 55367  43.0034 237.0368 0001211 276.8296  83.2408 15.02523935123428,15.02523935,0.0001211,LEO
55368,STARLINK-5625,2023,95.84,290.0,+,43.01,Active,1,LEO,USA,USA,Commercial,Communications,Falcon,1 55368U 23013AP  25111.81818589  .00001856  00000+0  15246-3 0  9994,2 55368  43.0039 236.1037 0001442 264.9044  95.1633 15.02538409123875,15.02538409,0.0001442,LEO
55369,STARLINK-5644,2023,95.84,290.0,+,43.0,Active,1,LEO,USA,USA,Commercial,Communications,Falcon,1 55369U 23013AQ  25111.89413693  .00002047  00000+0  16657-3 0  9990,2 55369  43.0038 261.8124 0001290 267.3018  92.7677 15.02537230123159,15.0253723,0.000129,LEO
55370,STARLINK-5027,2023,95.84,290.0,+,43.0,Active,1,LEO,USA,USA,Commercial,Communications,Falcon,1 55370U 23013AR  25111.89855946  .00001894  00000+0  15527-3 0  9997,2 55370  43.0026 261.8487 0004211 243.4715 116.5696 15.02538173123158,15.02538173,0.0004211,LEO
55371,STARLINK-5590,2023,95.84,290.0,+,43.0,Active,1,LEO,USA,USA,Commercial,Communications,Falcon,1 55371U 23013AS  25111.88413578  .00001697  00000+0  14066-3 0  9996,2 55371  43.0068 261.7365 0003526 267.8750  92.1688 15.02541492124076,15.02541492,0.0003526,LEO
55372,STARLINK-5568,2023,95.84,290.0,+,43.0,Active,1,LEO,USA,USA,Commercial,Communications,Falcon,1 55372U 23013AT  25112.48907488  .00006837  00000+0  52040-3 0  9997,2 55372  43.0021 258.5359 0001437 234.6708 125.4000 15.02557197123242,15.02557197,0.0001437,LEO
